BEIDOU-3 G1 (C59)       
1 43683U 18085A   26027.88234942 -.00000273  00000+0  00000+0 0  9994
2 43683   2.7206 101.5337 0001416  65.3176  57.9555  1.00274268 26658
COSMOS 2529 (757)       
1 43687U 18086A   26027.40343968  .00000111  00000+0  00000+0 0  9996
2 43687  64.2949 197.3448 0006849 252.1853 107.7423  2.13101890 56283
BEIDOU-3 M17 (C36)      
1 43706U 18093A   26026.67431190  .00000101  00000+0  00000+0 0  9998
2 43706  54.1741 187.0963 0006125 303.2576 137.4729  1.86228099 48907
BEIDOU-3 M18 (C37)      
1 43707U 18093B   26026.95270532  .00000098  00000+0  00000+0 0  9996
2 43707  54.1751 187.0789 0005944 351.7862   8.1826  1.86226304 48908
GPS BIII-1  (PRN 04)    
1 43873U 18109A   26027.41134907 -.00000029  00000+0  00000+0 0  9990
2 43873  55.5919  97.7423 0037806 197.0331 162.0754  2.00554940 52248
BEIDOU-2 G8 (C01)       
1 44231U 19027A   26027.88321610 -.00000241  00000+0  00000+0 0  9995
2 44231   1.7761  74.7939 0009021 261.3502 253.4919  1.00271560 24672
COSMOS 2534 (758)       
1 44299U 19030A   26025.58160306  .00000118  00000+0  00000+0 0  9993
2 44299  64.3690 197.4150 0008651 282.9744 253.7470  2.13102048 51882
BEIDOU-3 IGSO-2 (C39)   
1 44337U 19035A   26027.81039847 -.00000122  00000+0  00000+0 0  9990
2 44337  55.2339 160.0975 0038226 204.0409 172.5678  1.00256543 24264
GPS BIII-2  (PRN 18)    
1 44506U 19056A   26027.80434897 -.00000086  00000+0  00000+0 0  9993
2 44506  55.7019 336.7244 0057806 198.6788 343.0733  2.00567138 47253
BEIDOU-3 M24 (C46)      
1 44542U 19061A   26025.41228704  .00000109  00000+0  00000+0 0  9997
2 44542  54.4016 187.5421 0009324  26.8379 333.1893  1.86229114 43137
BEIDOU-3 M23 (C45)      
1 44543U 19061B   26026.61113922  .00000103  00000+0  00000+0 0  9990
2 44543  54.4005 187.4700 0005660  25.2006 331.0720  1.86227162 43153
EUTELSAT 5 WEST B (EGN*)
1 44624U 19067A   26027.78224884 -.00000035  00000+0  00000+0 0  9990
2 44624   0.1031 303.1634 0003244   4.6805  95.7837  1.00269889 23022
BEIDOU-3 M22 (C44)      
1 44793U 19078A   26027.39983929 -.00000061  00000+0  00000+0 0  9997
2 44793  54.0648 304.7837 0006787  29.4428 330.6310  1.86231916 42026
BEIDOU-3 M21 (C43)      
1 44794U 19078B   26027.00159731 -.00000060  00000+0  00000+0 0  9991
2 44794  54.0381 304.7619 0004898  22.6923 337.3654  1.86227654 42024
COSMOS 2544 (759)       
1 44850U 19088A   26027.72018925 -.00000006  00000+0  00000+0 0  9993
2 44850  65.4837  78.4207 0015263 254.9326 104.9669  2.13101967 47727
BEIDOU-3 M19 (C41)      
1 44864U 19090A   26027.78788221 -.00000029  00000+0  00000+0 0  9995
2 44864  56.4333  67.4329 0019636 288.5699  74.8123  1.86230190 41623
BEIDOU-3 M20 (C42)      
1 44865U 19090B   26027.65482459 -.00000030  00000+0  00000+0 0  9998
2 44865  56.4346  67.4719 0016943 300.0487  63.7377  1.86231069 41606
BEIDOU-3 G2 (C60)       
1 45344U 20017A   26027.87038935 -.00000134  00000+0  00000+0 0  9997
2 45344   2.5827  44.8704 0002505 262.5968 213.0184  1.00270057 21850
COSMOS 2545 (760)       
1 45358U 20018A   26026.97727617 -.00000060  00000+0  00000+0 0  9993
2 45358  64.4414 317.3838 0009883 252.7440 107.1696  2.13102416 45655
BEIDOU-3 G3 (C61)       
1 45807U 20040A   26027.59121090 -.00000347  00000+0  00000+0 0  9997
2 45807   2.1002  66.9519 0004498 307.1438  76.1779  1.00271497 20660
GPS BIII-3  (PRN 23)    
1 45854U 20041A   26027.34296553 -.00000040  00000+0  00000+0 0  9990
2 45854  56.5800  34.4104 0061049 204.7334 306.9950  2.00560811 41214
GALAXY 30 (WAAS/PRN 135)
1 46114U 20056C   26027.68718068  .00000045  00000+0  00000+0 0  9997
2 46114   0.0163  72.5717 0002284 238.2681 298.4812  1.00271683 19881
COSMOS 2547 (705K)      
1 46805U 20075A   26027.16561581  .00000114  00000+0  00000+0 0  9991
2 46805  64.5995 197.1786 0006153 226.9808 132.9702  2.13100132 40902
GPS BIII-4  (PRN 14)    
1 46826U 20078A   26026.90797111  .00000110  00000+0  00000+0 0  9994
2 46826  54.0076 216.5065 0066514 203.5543 326.3198  2.00565897 38677
GPS BIII-5  (PRN 11)    
1 48859U 21054A   26023.67748104 -.00000070  00000+0  00000+0 0  9992
2 48859  55.2399 338.2713 0024263 234.6476 305.5580  2.00551324 33852
QZS-1R (QZSS/PRN 196)   
1 49336U 21096A   26026.48169931 -.00000278  00000+0  00000+0 0  9996
2 49336  37.1673  81.6900 0761256 272.2577  76.1814  1.00241302 15586
GSAT0223 (GALILEO 27)   
1 49809U 21116A   26027.35186576 -.00000084  00000+0  00000+0 0  9990
2 49809  57.2074 345.4818 0003678 269.6482 176.5124  1.70475179 25780
GSAT0224 (GALILEO 28)   
1 49810U 21116B   26026.44092493 -.00000080  00000+0  00000+0 0  9991
2 49810  57.2082 345.5052 0003162 277.8148  81.8834  1.70475226 25789
COSMOS 2557 (706K)      
1 52984U 22075A   26027.33076737 -.00000064  00000+0  00000+0 0  9996
2 52984  64.3824 319.4494 0012786 281.5069  78.3681  2.13101738 27712
COSMOS 2559 (707K)      
1 54031U 22130A   26025.27301616 -.00000054  00000+0  00000+0 0  9990
2 54031  64.3560 319.6094 0010848 187.8486 172.1576  2.13101080 25646
COSMOS 2564 (761)       
1 54377U 22161A   26026.99388799  .00000115  00000+0  00000+0 0  9991
2 54377  64.7415 197.3951 0008708 204.0146 155.9479  2.13101877 24624
GPS BIII-6  (PRN 28)    
1 55268U 23009A   26027.36108178  .00000028  00000+0  00000+0 0  9999
2 55268  55.1087 154.0539 0004029 342.8713  19.7023  2.00551671 22423
BEIDOU-3 G4 (C62)       
1 56564U 23066A   26026.39408094 -.00000100  00000+0  00000+0 0  9996
2 56564   0.7213 306.1415 0001516 216.8774 264.4347  1.00269231  9978
NVS-01 (IRNSS-1J)       
1 56759U 23076A   26027.80885566 -.00000326  00000+0  00000+0 0  9993
2 56759   2.5062 249.9369 0009224  33.3407 264.5027  1.00274056  9705
COSMOS 2569 (703K)      
1 57517U 23114A   26027.47634448 -.00000007  00000+0  00000+0 0  9999
2 57517  65.2190  77.3672 0012181 289.0602  70.8761  2.13103893 19269
BEIDOU-3 M28 (C50)      
1 58654U 23207A   26026.00553359 -.00000031  00000+0  00000+0 0  9991
2 58654  55.6239  67.1017 0004096 289.3792  70.6399  1.86229601 14195
BEIDOU-3 M26 (C48)      
1 58655U 23207B   26027.41386052 -.00000032  00000+0  00000+0 0  9993
2 58655  55.6274  67.0402 0005187 275.4947  84.5091  1.86229452 14201
GSAT0225 (GALILEO 29)   
1 59598U 24079A   26027.62364006 -.00000023  00000+0  00000+0 0  9996
2 59598  55.0268 105.0105 0002116 227.8422 130.4409  1.70474779 10911
GSAT0227 (GALILEO 30)   
1 59600U 24079C   26026.05017418 -.00000012  00000+0  00000+0 0  9996
2 59600  55.0213 105.0534 0001435 119.0208 241.0342  1.70474835 10949
GSAT0232 (GALILEO 32)   
1 61182U 24167A   26010.80494384  .00000067  00000+0  00000+0 0  9998
2 61182  55.2321 225.6317 0001771 188.3607   9.6826  1.70473658  8193
GSAT0226 (GALILEO 31)   
1 61183U 24167B   26026.65699863  .00000095  00000+0  00000+0 0  9999
2 61183  55.2272 225.2015 0001760 112.3323 207.1579  1.70473584  8435
BEIDOU-3 M25 (C47)      
1 61186U 24168B   26027.36266741 -.00000065  00000+0  00000+0 0  9995
2 61186  54.5992 307.1383 0004939 308.8933 133.6774  1.86229761  9161
BEIDOU-3 M27 (C49)      
1 61187U 24168C   26027.19201279 -.00000064  00000+0  00000+0 0  9991
2 61187  54.5948 307.1277 0002736   0.2706 102.8543  1.86229926  6633
GPS BIII-7  (PRN 01)    
1 62339U 24242A   26024.01101635 -.00000071  00000+0  00000+0 0  9995
2 62339  54.9087 340.0290 0014289 350.7161 192.5514  2.00568564  8363
NVS-02 (IRNSS-1K)       
1 62850U 25020A   26027.03612444  .00000724  00000+0  37934-3 0  9992
2 62850  20.8852 311.1515 7348264  55.7510 353.2138  2.17643389  7906
QZS-6 (QZSS/PRN 200)    
1 62876U 25023A   26027.58722421 -.00000225  00000+0  00000+0 0  9997
2 62876   0.0088  37.8978 0002151 268.4496 122.3705  1.00274439  3549
COSMOS 2584 (704K)      
1 63130U 25042A   26024.54756284 -.00000001  00000+0  00000+0 0  9991
2 63130  64.9992  77.6870 0007940 228.4435 131.5609  2.13103048  6987
GPS BIII-8  (PRN 21)    
1 64202U 25116A   26027.23933762 -.00000043  00000+0  00000+0 0  9997
2 64202  55.1401  36.8041 0007417 317.9520 223.9931  2.00555049  5048
COSMOS 2596 (708K)      
1 65590U 25206B   26027.37031091 -.00000064  00000+0  00000+0 0  9990
2 65590  64.7167 319.8897 0013668 311.4966 172.0082  2.13099919  2912
